{"type": "FeatureCollection", "features": [ {"type": "Feature", "properties": {"norad_id": 28659, "name": "DIRECTV 8", "group": "intelsat", "lat": 0.03596745062956087, "lon": 10.949530142443317, "alt_km": 35794.01236236611, "timestamp": "2025-12-01T03:58:49.229276+00:00", "meta": {"OBJECT_NAME": "DIRECTV 8", "OBJECT_ID": "2005-019A", "EPOCH": "2025-11-30T16:42:05.131872", "MEAN_MOTION": 1.00266434, "ECCENTRICITY": 0.0003068, "INCLINATION": 0.0175, "RA_OF_ASC_NODE": 283.3666, "ARG_OF_PERICENTER": 327.8282, "MEAN_ANOMALY": 310.1163, "EPHEMERIS_TYPE": 0, "CLASSIFICATION_TYPE": "U", "NORAD_CAT_ID": 28659, "ELEMENT_SET_NO": 999, "REV_AT_EPOCH": 7508, "BSTAR": 0, "MEAN_MOTION_DOT": 2.3e-07, "MEAN_MOTION_DDOT": 0, "GROUP": "intelsat"}, "tle": {"line1": "1 28659U 05019A   25334.69589273  .00000023  00000+0  00000+0 0  9994", "line2": "2 28659   0.0175 283.3666 0003068 327.8282 310.1163  1.00266434 75089"}}, "geometry": {"type": "Point", "coordinates": [10.949530142443317, 0.03596745062956087]}}, {"type": "Feature", "properties": {"norad_id": 28702, "name": "GALAXY 28 (G-28)", "group": "intelsat", "lat": -1.7752137099764176, "lon": 41.30827915560873, "alt_km": 35795.33449325687, "timestamp": "2025-12-01T03:58:49.229307+00:00", "meta": {"OBJECT_NAME": "GALAXY 28 (G-28)", "OBJECT_ID": "2005-022A", "EPOCH": "2025-11-30T13:25:13.583136", "MEAN_MOTION": 1.00270992, "ECCENTRICITY": 0.0002652, "INCLINATION": 2.7875, "RA_OF_ASC_NODE": 81.419, "ARG_OF_PERICENTER": 178.6697, "MEAN_ANOMALY": 282.2, "EPHEMERIS_TYPE": 0, "CLASSIFICATION_TYPE": "U", "NORAD_CAT_ID": 28702, "ELEMENT_SET_NO": 999, "REV_AT_EPOCH": 4998, "BSTAR": 0, "MEAN_MOTION_DOT": -1.65e-06, "MEAN_MOTION_DDOT": 0, "GROUP": "intelsat"}, "tle": {"line1": "1 28702U 05022A   25334.55918499 -.00000165  00000+0  00000+0 0  9996", "line2": "2 28702   2.7875  81.4190 0002652 178.6697 282.2000  1.00270992 49986"}}, "geometry": {"type": "Point", "coordinates": [41.30827915560873, -1.7752137099764176]}}, {"type": "Feature", "properties": {"norad_id": 29236, "name": "GALAXY 16 (G-16)", "group": "intelsat", "lat": 0.022902819600071133, "lon": 30.983373533439078, "alt_km": 35795.69563944266, "timestamp": "2025-12-01T03:58:49.229333+00:00", "meta": {"OBJECT_NAME": "GALAXY 16 (G-16)", "OBJECT_ID": "2006-023A", "EPOCH": "2025-11-30T15:05:07.393056", "MEAN_MOTION": 1.00270653, "ECCENTRICITY": 0.0002766, "INCLINATION": 0.0279, "RA_OF_ASC_NODE": 227.0783, "ARG_OF_PERICENTER": 21.5019, "MEAN_ANOMALY": 308.4622, "EPHEMERIS_TYPE": 0, "CLASSIFICATION_TYPE": "U", "NORAD_CAT_ID": 29236, "ELEMENT_SET_NO": 999, "REV_AT_EPOCH": 7098, "BSTAR": 0, "MEAN_MOTION_DOT": -1.05e-06, "MEAN_MOTION_DDOT": 0, "GROUP": "intelsat"}, "tle": {"line1": "1 29236U 06023A   25334.62855779 -.00000105  00000+0  00000+0 0  9994", "line2": "2 29236   0.0279 227.0783 0002766  21.5019 308.4622  1.00270653 70983"}}, "geometry": {"type": "Point", "coordinates": [30.983373533439078, 0.022902819600071133]}}, {"type": "Feature", "properties": {"norad_id": 29494, "name": "DIRECTV 9S", "group": "intelsat", "lat": -1.5318475714324848, "lon": 28.80547975198974, "alt_km": 35796.72540962632, "timestamp": "2025-12-01T03:58:49.229348+00:00", "meta": {"OBJECT_NAME": "DIRECTV 9S", "OBJECT_ID": "2006-043A", "EPOCH": "2025-11-30T13:21:43.917120", "MEAN_MOTION": 1.00270945, "ECCENTRICITY": 0.0003051, "INCLINATION": 1.9058, "RA_OF_ASC_NODE": 83.3424, "ARG_OF_PERICENTER": 163.3579, "MEAN_ANOMALY": 282.2261, "EPHEMERIS_TYPE": 0, "CLASSIFICATION_TYPE": "U", "NORAD_CAT_ID": 29494, "ELEMENT_SET_NO": 999, "REV_AT_EPOCH": 4939, "BSTAR": 0, "MEAN_MOTION_DOT": -9.1e-07, "MEAN_MOTION_DDOT": 0, "GROUP": "intelsat"}, "tle": {"line1": "1 29494U 06043A   25334.55675830 -.00000091  00000+0  00000+0 0  9996", "line2": "2 29494   1.9058  83.3424 0003051 163.3579 282.2261  1.00270945 49396"}}, "geometry": {"type": "Point", "coordinates": [28.80547975198974, -1.5318475714324848]}}, {"type": "Feature", "properties": {"norad_id": 31307, "name": "GALAXY 17 (G-17)", "group": "intelsat", "lat": -1.4777398954595231, "lon": 45.01271836665462, "alt_km": 35810.686382343614, "timestamp": "2025-12-01T03:58:49.229364+00:00", "meta": {"OBJECT_NAME": "GALAXY 17 (G-17)", "OBJECT_ID": "2007-016B", "EPOCH": "2025-11-30T18:34:16.889376", "MEAN_MOTION": 1.00269917, "ECCENTRICITY": 0.0006011, "INCLINATION": 2.4672, "RA_OF_ASC_NODE": 82.4248, "ARG_OF_PERICENTER": 163.0032, "MEAN_ANOMALY": 18.0444, "EPHEMERIS_TYPE": 0, "CLASSIFICATION_TYPE": "U", "NORAD_CAT_ID": 31307, "ELEMENT_SET_NO": 999, "REV_AT_EPOCH": 6781, "BSTAR": 0, "MEAN_MOTION_DOT": -1.84e-06, "MEAN_MOTION_DDOT": 0, "GROUP": "intelsat"}, "tle": {"line1": "1 31307U 07016B   25334.77380659 -.00000184  00000+0  00000+0 0  9992", "line2": "2 31307   2.4672  82.4248 0006011 163.0032  18.0444  1.00269917 67816"}}, "geometry": {"type": "Point", "coordinates": [45.01271836665462, -1.4777398954595231]}}, {"type": "Feature", "properties": {"norad_id": 31862, "name": "DIRECTV 10", "group": "intelsat", "lat": 0.008430707817874531, "lon": 27.17470618006069, "alt_km": 35787.14560049983, "timestamp": "2025-12-01T03:58:49.229377+00:00", "meta": {"OBJECT_NAME": "DIRECTV 10", "OBJECT_ID": "2007-032A", "EPOCH": "2025-11-30T15:03:37.536192", "MEAN_MOTION": 1.00271863, "ECCENTRICITY": 2.95e-05, "INCLINATION": 0.0207, "RA_OF_ASC_NODE": 182.8384, "ARG_OF_PERICENTER": 354.5848, "MEAN_ANOMALY": 15.4538, "EPHEMERIS_TYPE": 0, "CLASSIFICATION_TYPE": "U", "NORAD_CAT_ID": 31862, "ELEMENT_SET_NO": 999, "REV_AT_EPOCH": 4360, "BSTAR": 0, "MEAN_MOTION_DOT": -8.1e-07, "MEAN_MOTION_DDOT": 0, "GROUP": "intelsat"}, "tle": {"line1": "1 31862U 07032A   25334.62751778 -.00000081  00000+0  00000+0 0  9990", "line2": "2 31862   0.0207 182.8384 0000295 354.5848  15.4538  1.00271863 43605"}}, "geometry": {"type": "Point", "coordinates": [27.17470618006069, 0.008430707817874531]}}, {"type": "Feature", "properties": {"norad_id": 32253, "name": "INTELSAT 11 (IS-11)", "group": "intelsat", "lat": -1.7005309412058964, "lon": 46.699264499465926, "alt_km": 36170.967798590864, "timestamp": "2025-12-01T03:58:49.229389+00:00", "meta": {"OBJECT_NAME": "INTELSAT 11 (IS-11)", "OBJECT_ID": "2007-044B", "EPOCH": "2025-11-30T15:09:51.939360", "MEAN_MOTION": 0.99048071, "ECCENTRICITY": 0.000917, "INCLINATION": 3.0458, "RA_OF_ASC_NODE": 81.1139, "ARG_OF_PERICENTER": 159.2733, "MEAN_ANOMALY": 335.8647, "EPHEMERIS_TYPE": 0, "CLASSIFICATION_TYPE": "U", "NORAD_CAT_ID": 32253, "ELEMENT_SET_NO": 999, "REV_AT_EPOCH": 6648, "BSTAR": 0, "MEAN_MOTION_DOT": -4.7e-07, "MEAN_MOTION_DDOT": 0, "GROUP": "intelsat"}, "tle": {"line1": "1 32253U 07044B   25334.63185115 -.00000047  00000+0  00000+0 0  9997", "line2": "2 32253   3.0458  81.1139 0009170 159.2733 335.8647  0.99048071 66485"}}, "geometry": {"type": "Point", "coordinates": [46.699264499465926, -1.7005309412058964]}}, {"type": "Feature", "properties": {"norad_id": 32388, "name": "HORIZONS-2", "group": "intelsat", "lat": -0.9230694311855872, "lon": 56.21123957784545, "alt_km": 35804.20072684568, "timestamp": "2025-12-01T03:58:49.229403+00:00", "meta": {"OBJECT_NAME": "HORIZONS-2", "OBJECT_ID": "2007-063B", "EPOCH": "2025-11-30T18:37:46.552800", "MEAN_MOTION": 1.00273133, "ECCENTRICITY": 0.0004789, "INCLINATION": 2.0876, "RA_OF_ASC_NODE": 83.094, "ARG_OF_PERICENTER": 178.4424, "MEAN_ANOMALY": 14.0175, "EPHEMERIS_TYPE": 0, "CLASSIFICATION_TYPE": "U", "NORAD_CAT_ID": 32388, "ELEMENT_SET_NO": 999, "REV_AT_EPOCH": 6582, "BSTAR": 0, "MEAN_MOTION_DOT": -2.32e-06, "MEAN_MOTION_DDOT": 0, "GROUP": "intelsat"}, "tle": {"line1": "1 32388U 07063B   25334.77623325 -.00000232  00000+0  00000+0 0  9998", "line2": "2 32388   2.0876  83.0940 0004789 178.4424  14.0175  1.00273133 65820"}}, "geometry": {"type": "Point", "coordinates": [56.21123957784545, -0.9230694311855872]}}, {"type": "Feature", "properties": {"norad_id": 32729, "name": "DIRECTV 11", "group": "intelsat", "lat": 0.008110170796512679, "lon": 30.768968406595825, "alt_km": 35789.377616491045, "timestamp": "2025-12-01T03:58:49.229416+00:00", "meta": {"OBJECT_NAME": "DIRECTV 11", "OBJECT_ID": "2008-013A", "EPOCH": "2025-11-30T15:04:59.903904", "MEAN_MOTION": 1.00267399, "ECCENTRICITY": 6.64e-05, "INCLINATION": 0.0407, "RA_OF_ASC_NODE": 146.0431, "ARG_OF_PERICENTER": 21.9631, "MEAN_ANOMALY": 28.8213, "EPHEMERIS_TYPE": 0, "CLASSIFICATION_TYPE": "U", "NORAD_CAT_ID": 32729, "ELEMENT_SET_NO": 999, "REV_AT_EPOCH": 4360, "BSTAR": 0, "MEAN_MOTION_DOT": -1.03e-06, "MEAN_MOTION_DDOT": 0, "GROUP": "intelsat"}, "tle": {"line1": "1 32729U 08013A   25334.62847111 -.00000103  00000+0  00000+0 0  9995", "line2": "2 32729   0.0407 146.0431 0000664  21.9631  28.8213  1.00267399 43607"}}, "geometry": {"type": "Point", "coordinates": [30.768968406595825, 0.008110170796512679]}}, {"type": "Feature", "properties": {"norad_id": 32951, "name": "GALAXY 18 (G-18)", "group": "intelsat", "lat": 0.02304040768480262, "lon": 6.994343513327508, "alt_km": 35791.94148256554, "timestamp": "2025-12-01T03:58:49.229430+00:00", "meta": {"OBJECT_NAME": "GALAXY 18 (G-18)", "OBJECT_ID": "2008-024A", "EPOCH": "2025-11-30T16:40:57.739872", "MEAN_MOTION": 1.00272465, "ECCENTRICITY": 0.0003195, "INCLINATION": 0.0114, "RA_OF_ASC_NODE": 328.3462, "ARG_OF_PERICENTER": 281.9734, "MEAN_ANOMALY": 306.7423, "EPHEMERIS_TYPE": 0, "CLASSIFICATION_TYPE": "U", "NORAD_CAT_ID": 32951, "ELEMENT_SET_NO": 999, "REV_AT_EPOCH": 4386, "BSTAR": 0, "MEAN_MOTION_DOT": 4.7e-07, "MEAN_MOTION_DDOT": 0, "GROUP": "intelsat"}, "tle": {"line1": "1 32951U 08024A   25334.69511273  .00000047  00000+0  00000+0 0  9994", "line2": "2 32951   0.0114 328.3462 0003195 281.9734 306.7423  1.00272465 43861"}}, "geometry": {"type": "Point", "coordinates": [6.994343513327508, 0.02304040768480262]}}]}